{
  "type": "FeatureCollection",
  "features": [
    {
      "type": "Feature",
      "properties": {
        "norad_id": 58647,
        "name": "TIANMU-1 13",
        "group": "weather",
        "lat": -9.426334301325873,
        "lon": -164.37762014059862,
        "alt_km": 492.26407159421524,
        "timestamp": "2025-12-23T09:49:06.719694+00:00",
        "meta_object_name": "TIANMU-1 13",
        "meta_object_id": "2023-205C",
        "meta_epoch": "2025-12-22T23:32:21.139872",
        "meta_mean_motion": 15.2464607,
        "meta_eccentricity": 0.00064658,
        "meta_inclination": 97.3609,
        "meta_ra_of_asc_node": 16.4313,
        "meta_arg_of_pericenter": 221.9986,
        "meta_mean_anomaly": 138.0757,
        "meta_ephemeris_type": 0,
        "meta_classification_type": "U",
        "meta_norad_cat_id": 58647,
        "meta_element_set_no": 999,
        "meta_rev_at_epoch": 11063,
        "meta_bstar": 0.00027363094,
        "meta_mean_motion_dot": 6.689e-05,
        "meta_mean_motion_ddot": 0,
        "tle_line1": "1 58647U 23205C   25356.98080023  .00006689  00000+0  27363-3 0  9995",
        "tle_line2": "2 58647  97.3609  16.4313 0006465 221.9986 138.0757 15.24646070110639"
      },
      "geometry": {
        "type": "Point",
        "coordinates": [
          -164.37762014059862,
          -9.426334301325873
        ]
      }
    },
    {
      "type": "Feature",
      "properties": {
        "norad_id": 58648,
        "name": "TIANMU-1 14",
        "group": "weather",
        "lat": -77.71763074314829,
        "lon": 52.57739836399273,
        "alt_km": 496.28262167827506,
        "timestamp": "2025-12-23T09:49:06.719704+00:00",
        "meta_object_name": "TIANMU-1 14",
        "meta_object_id": "2023-205D",
        "meta_epoch": "2025-12-22T23:08:36.593952",
        "meta_mean_motion": 15.24628391,
        "meta_eccentricity": 0.00071777,
        "meta_inclination": 97.3541,
        "meta_ra_of_asc_node": 15.7544,
        "meta_arg_of_pericenter": 228.2526,
        "meta_mean_anomaly": 131.8099,
        "meta_ephemeris_type": 0,
        "meta_classification_type": "U",
        "meta_norad_cat_id": 58648,
        "meta_element_set_no": 999,
        "meta_rev_at_epoch": 11063,
        "meta_bstar": 0.00027183107,
        "meta_mean_motion_dot": 6.642e-05,
        "meta_mean_motion_ddot": 0,
        "tle_line1": "1 58648U 23205D   25356.96431243  .00006642  00000+0  27183-3 0  9997",
        "tle_line2": "2 58648  97.3541  15.7544 0007177 228.2526 131.8099 15.24628391110630"
      },
      "geometry": {
        "type": "Point",
        "coordinates": [
          52.57739836399273,
          -77.71763074314829
        ]
      }
    },
    {
      "type": "Feature",
      "properties": {
        "norad_id": 58660,
        "name": "TIANMU-1 19",
        "group": "weather",
        "lat": -55.21588889675553,
        "lon": 119.26940633220825,
        "alt_km": 489.16383934354053,
        "timestamp": "2025-12-23T09:49:06.719715+00:00",
        "meta_object_name": "TIANMU-1 19",
        "meta_object_id": "2023-208A",
        "meta_epoch": "2025-12-22T23:03:41.015232",
        "meta_mean_motion": 15.2802632,
        "meta_eccentricity": 0.0004643,
        "meta_inclination": 97.4394,
        "meta_ra_of_asc_node": 107.979,
        "meta_arg_of_pericenter": 208.6366,
        "meta_mean_anomaly": 151.4619,
        "meta_ephemeris_type": 0,
        "meta_classification_type": "U",
        "meta_norad_cat_id": 58660,
        "meta_element_set_no": 999,
        "meta_rev_at_epoch": 11038,
        "meta_bstar": 0.00035369655,
        "meta_mean_motion_dot": 9.6e-05,
        "meta_mean_motion_ddot": 0,
        "tle_line1": "1 58660U 23208A   25356.96089138  .00009600  00000+0  35370-3 0  9990",
        "tle_line2": "2 58660  97.4394 107.9790 0004643 208.6366 151.4619 15.28026320110383"
      },
      "geometry": {
        "type": "Point",
        "coordinates": [
          119.26940633220825,
          -55.21588889675553
        ]
      }
    },
    {
      "type": "Feature",
      "properties": {
        "norad_id": 58661,
        "name": "TIANMU-1 20",
        "group": "weather",
        "lat": 62.93630326546413,
        "lon": 94.07933828194811,
        "alt_km": 476.2880766039998,
        "timestamp": "2025-12-23T09:49:06.719725+00:00",
        "meta_object_name": "TIANMU-1 20",
        "meta_object_id": "2023-208B",
        "meta_epoch": "2025-12-22T22:32:48.011712",
        "meta_mean_motion": 15.29216035,
        "meta_eccentricity": 0.00067157,
        "meta_inclination": 97.4332,
        "meta_ra_of_asc_node": 108.4152,
        "meta_arg_of_pericenter": 223.4533,
        "meta_mean_anomaly": 136.6179,
        "meta_ephemeris_type": 0,
        "meta_classification_type": "U",
        "meta_norad_cat_id": 58661,
        "meta_element_set_no": 999,
        "meta_rev_at_epoch": 11045,
        "meta_bstar": 0.00036645705,
        "meta_mean_motion_dot": 0.00010323,
        "meta_mean_motion_ddot": 0,
        "tle_line1": "1 58661U 23208B   25356.93944458  .00010323  00000+0  36646-3 0  9994",
        "tle_line2": "2 58661  97.4332 108.4152 0006715 223.4533 136.6179 15.29216035110456"
      },
      "geometry": {
        "type": "Point",
        "coordinates": [
          94.07933828194811,
          62.93630326546413
        ]
      }
    },
    {
      "type": "Feature",
      "properties": {
        "norad_id": 58662,
        "name": "TIANMU-1 21",
        "group": "weather",
        "lat": 14.192036400629062,
        "lon": -67.26571802517185,
        "alt_km": 468.84604826600025,
        "timestamp": "2025-12-23T09:49:06.719737+00:00",
        "meta_object_name": "TIANMU-1 21",
        "meta_object_id": "2023-208C",
        "meta_epoch": "2025-12-22T22:07:21.893952",
        "meta_mean_motion": 15.31758134,
        "meta_eccentricity": 0.00063365,
        "meta_inclination": 97.4381,
        "meta_ra_of_asc_node": 110.3518,
        "meta_arg_of_pericenter": 217.7591,
        "meta_mean_anomaly": 142.3207,
        "meta_ephemeris_type": 0,
        "meta_classification_type": "U",
        "meta_norad_cat_id": 58662,
        "meta_element_set_no": 999,
        "meta_rev_at_epoch": 11055,
        "meta_bstar": 0.00038668893,
        "meta_mean_motion_dot": 0.00011791,
        "meta_mean_motion_ddot": 0,
        "tle_line1": "1 58662U 23208C   25356.92178118  .00011791  00000+0  38669-3 0  9993",
        "tle_line2": "2 58662  97.4381 110.3518 0006336 217.7591 142.3207 15.31758134110559"
      },
      "geometry": {
        "type": "Point",
        "coordinates": [
          -67.26571802517185,
          14.192036400629062
        ]
      }
    },
    {
      "type": "Feature",
      "properties": {
        "norad_id": 58663,
        "name": "TIANMU-1 22",
        "group": "weather",
        "lat": -63.41422384657268,
        "lon": 123.61454347778246,
        "alt_km": 488.8171058130456,
        "timestamp": "2025-12-23T09:49:06.719747+00:00",
        "meta_object_name": "TIANMU-1 22",
        "meta_object_id": "2023-208D",
        "meta_epoch": "2025-12-22T23:05:47.655168",
        "meta_mean_motion": 15.27767735,
        "meta_eccentricity": 0.00028597,
        "meta_inclination": 97.4388,
        "meta_ra_of_asc_node": 108.0347,
        "meta_arg_of_pericenter": 233.7087,
        "meta_mean_anomaly": 126.3888,
        "meta_ephemeris_type": 0,
        "meta_classification_type": "U",
        "meta_norad_cat_id": 58663,
        "meta_element_set_no": 999,
        "meta_rev_at_epoch": 11039,
        "meta_bstar": 0.00033365158,
        "meta_mean_motion_dot": 8.978e-05,
        "meta_mean_motion_ddot": 0,
        "tle_line1": "1 58663U 23208D   25356.96235712  .00008978  00000+0  33365-3 0  9993",
        "tle_line2": "2 58663  97.4388 108.0347 0002859 233.7087 126.3888 15.27767735110396"
      },
      "geometry": {
        "type": "Point",
        "coordinates": [
          123.61454347778246,
          -63.41422384657268
        ]
      }
    },
    {
      "type": "Feature",
      "properties": {
        "norad_id": 58700,
        "name": "TIANMU-1 15",
        "group": "weather",
        "lat": -57.25243848006454,
        "lon": -169.40236401273708,
        "alt_km": 497.0414785955936,
        "timestamp": "2025-12-23T09:49:06.719757+00:00",
        "meta_object_name": "TIANMU-1 15",
        "meta_object_id": "2024-004A",
        "meta_epoch": "2025-12-22T23:02:45.000384",
        "meta_mean_motion": 15.24534977,
        "meta_eccentricity": 0.00059978,
        "meta_inclination": 97.4624,
        "meta_ra_of_asc_node": 178.3913,
        "meta_arg_of_pericenter": 246.6404,
        "meta_mean_anomaly": 113.4202,
        "meta_ephemeris_type": 0,
        "meta_classification_type": "U",
        "meta_norad_cat_id": 58700,
        "meta_element_set_no": 999,
        "meta_rev_at_epoch": 10890,
        "meta_bstar": 0.00028838443,
        "meta_mean_motion_dot": 7.029e-05,
        "meta_mean_motion_ddot": 0,
        "tle_line1": "1 58700U 24004A   25356.96024306  .00007029  00000+0  28838-3 0  9990",
        "tle_line2": "2 58700  97.4624 178.3913 0005997 246.6404 113.4202 15.24534977108900"
      },
      "geometry": {
        "type": "Point",
        "coordinates": [
          -169.40236401273708,
          -57.25243848006454
        ]
      }
    }
  ]
}